[{"OBJECT_NAME":"STARLINK-11473 [DTC]","OBJECT_ID":"2024-217D","EPOCH":"2026-03-09T06:23:04.225632","MEAN_MOTION":15.69703182,"ECCENTRICITY":0.00012687,"INCLINATION":53.1574,"RA_OF_ASC_NODE":73.5928,"ARG_OF_PERICENTER":81.2542,"MEAN_ANOMALY":278.8619,"EPHEMERIS_TYPE":0,"CLASSIFICATION_TYPE":"U","NORAD_CAT_ID":62060,"ELEMENT_SET_NO":999,"REV_AT_EPOCH":7510,"BSTAR":0.0015542493,"MEAN_MOTION_DOT":0.00192074,"MEAN_MOTION_DDOT":0},{"OBJECT_NAME":"ISS OBJECT XT","OBJECT_ID":"1998-067XT","EPOCH":"2026-03-09T23:09:29.137248","MEAN_MOTION":15.69333449,"ECCENTRICITY":0.00047012,"INCLINATION":51.6253,"RA_OF_ASC_NODE":64.2319,"ARG_OF_PERICENTER":78.1098,"MEAN_ANOMALY":282.0426,"EPHEMERIS_TYPE":0,"CLASSIFICATION_TYPE":"U","NORAD_CAT_ID":66907,"ELEMENT_SET_NO":999,"REV_AT_EPOCH":1522,"BSTAR":0.0013746382,"MEAN_MOTION_DOT":0.00167047,"MEAN_MOTION_DDOT":0}]
